NORAD_CAT_ID,OBJECT_NAME,OBJECT_TYPE,EPOCH,MEAN_MOTION,ECCENTRICITY,INCLINATION,RA_OF_ASC_NODE,ARG_OF_PERICENTER,MEAN_ANOMALY,BSTAR,MEAN_MOTION_DOT,MEAN_MOTION_DDOT,TLE_LINE0,TLE_LINE1,TLE_LINE2,SEMIMAJOR_AXIS,PERIOD,APOGEE,PERIGEE,DECAYED
52111.0,STARLINK-3708,PAYLOAD,2023-03-14 21:45:05,15.08870728,0.0001109,53.2143,295.8428,92.1755,267.9364,0.0019384,0.00030722,0.0,0 STARLINK-3708,1 52111U 22029Z   23073.90631201  .00030722  00000-0  19384-2 0  9993,2 52111  53.2143 295.8428 0001109  92.1755 267.9364 15.08870728 56114,6917.786,95.436,540.419,538.884,0.0
52111.0,STARLINK-3708,PAYLOAD,2023-03-15 12:03:33,15.08852204,0.0001045,53.2142,293.166,100.8376,259.2733,0.0008322,0.00012986,0.0,0 STARLINK-3708,1 52111U 22029Z   23074.50247070  .00012986  00000-0  83220-3 0  9990,2 52111  53.2142 293.1660 0001045 100.8376 259.2733 15.08852204 56200,6917.843,95.437,540.431,538.985,0.0
52111.0,STARLINK-3708,PAYLOAD,2023-03-15 21:35:52,15.08858652,0.0001032,53.2139,291.3822,104.0281,256.0826,0.0015264,0.00024101,0.0,0 STARLINK-3708,1 52111U 22029Z   23074.89990756  .00024101  00000-0  15264-2 0  9992,2 52111  53.2139 291.3822 0001032 104.0281 256.0826 15.08858652 56260,6917.823,95.436,540.402,538.974,0.0
52111.0,STARLINK-3708,PAYLOAD,2023-03-15 23:11:15,15.08861821,0.0001031,53.2138,291.0848,105.2067,254.9039,0.0016597,0.00026241,0.0,0 STARLINK-3708,1 52111U 22029Z   23074.96614644  .00026241  00000-0  16597-2 0  9996,2 52111  53.2138 291.0848 0001031 105.2067 254.9039 15.08861821 56274,6917.814,95.436,540.392,538.965,0.0
52111.0,STARLINK-3708,PAYLOAD,2023-03-16 16:40:30,15.08839387,8.67e-05,53.2134,287.8135,117.2387,242.8693,0.0014109,0.00022237,0.0,0 STARLINK-3708,1 52111U 22029Z   23075.69479432  .00022237  00000-0  14109-2 0  9999,2 52111  53.2134 287.8135 0000867 117.2387 242.8693 15.08839387 56382,6917.882,95.438,540.347,539.147,0.0
52111.0,STARLINK-3708,PAYLOAD,2023-03-16 21:26:39,15.08824106,9.6e-05,53.2135,286.9211,81.6367,278.4734,0.0010331,0.00016185,0.0,0 STARLINK-3708,1 52111U 22029Z   23075.89351756  .00016185  00000-0  10331-2 0  9997,2 52111  53.2135 286.9211 0000960  81.6367 278.4734 15.08824106 56412,6917.929,95.439,540.458,539.13,0.0
52111.0,STARLINK-3708,PAYLOAD,2023-03-16 23:02:03,15.08825112,9.96e-05,53.2134,286.6237,76.0925,284.0178,0.0013551,0.00021335,0.0,0 STARLINK-3708,1 52111U 22029Z   23075.95975886  .00021335  00000-0  13551-2 0  9990,2 52111  53.2134 286.6237 0000996  76.0925 284.0178 15.08825112 56427,6917.926,95.438,540.48,539.102,0.0
52111.0,STARLINK-3708,PAYLOAD,2023-03-17 13:20:31,15.08841661,8.95e-05,53.2135,283.9465,88.0938,272.0157,0.001014,0.00015887,0.0,0 STARLINK-3708,1 52111U 22029Z   23076.55592091  .00015887  00000-0  10140-2 0  9996,2 52111  53.2135 283.9465 0000895  88.0938 272.0157 15.08841661 56517,6917.875,95.437,540.359,539.121,0.0
52111.0,STARLINK-3708,PAYLOAD,2023-03-17 16:31:17,15.08844367,8.36e-05,53.2129,283.3531,95.6842,264.4246,0.00078058,0.00012158,0.0,0 STARLINK-3708,1 52111U 22029Z   23076.68839928  .00012158  00000-0  78058-3 0  9994,2 52111  53.2129 283.3531 0000836  95.6842 264.4246 15.08844367 56533,6917.867,95.437,540.31,539.154,0.0
52111.0,STARLINK-3708,PAYLOAD,2023-03-17 21:17:26,15.08852389,8.7e-05,53.2132,282.4603,93.3044,266.8047,0.00087897,0.00013733,0.0,0 STARLINK-3708,1 52111U 22029Z   23076.88711742  .00013733  00000-0  87897-3 0  9990,2 52111  53.2132 282.4603 0000870  93.3044 266.8047 15.08852389 56565,6917.843,95.437,540.309,539.106,0.0
52111.0,STARLINK-3708,PAYLOAD,2023-03-18 08:25:09,15.08846571,0.0001034,53.213,280.3806,83.0305,277.0805,0.00069456,0.00010785,0.0,0 STARLINK-3708,1 52111U 22029Z   23077.35079893  .00010785  00000-0  69456-3 0  9992,2 52111  53.2130 280.3806 0001034  83.0305 277.0805 15.08846571 56634,6917.86,95.437,540.441,539.01,0.0
52111.0,STARLINK-3708,PAYLOAD,2023-03-18 19:32:50,15.08848262,0.0001038,53.2125,278.2974,81.9,278.211,0.00030119,4.51e-05,0.0,0 STARLINK-3708,1 52111U 22029Z   23077.81447577  .00004510  00000-0  30119-3 0  9994,2 52111  53.2125 278.2974 0001038  81.9000 278.2110 15.08848262 56702,6917.855,95.437,540.438,539.002,0.0
52111.0,STARLINK-3708,PAYLOAD,2023-03-19 08:15:55,15.08850036,0.0001176,53.2123,275.9196,80.3906,279.7219,0.00023451,3.447e-05,0.0,0 STARLINK-3708,1 52111U 22029Z   23078.34439323  .00003447  00000-0  23451-3 0  9992,2 52111  53.2123 275.9196 0001176  80.3906 279.7219 15.08850036 56787,6917.85,95.437,540.528,538.901,0.0
52111.0,STARLINK-3708,PAYLOAD,2023-03-19 19:23:37,15.08847063,9.31e-05,53.2135,273.837,85.6873,274.4225,7.2552e-05,8.67e-06,0.0,0 STARLINK-3708,1 52111U 22029Z   23078.80807314  .00000867  00000-0  72552-4 0  9992,2 52111  53.2135 273.8370 0000931  85.6873 274.4225 15.08847063 56853,6917.859,95.437,540.368,539.08,0.0
52111.0,STARLINK-3708,PAYLOAD,2023-03-20 06:31:19,15.08840657,0.0001504,53.213,271.7554,77.968,282.148,3.372e-05,2.49e-06,0.0,0 STARLINK-3708,1 52111U 22029Z   23079.27175753  .00000249  00000-0  33720-4 0  9997,2 52111  53.2130 271.7554 0001504  77.9680 282.1480 15.08840657 56925,6917.878,95.438,540.784,538.703,0.0
52111.0,STARLINK-3708,PAYLOAD,2023-03-20 19:14:24,15.08842348,0.0001091,53.2129,269.3761,75.5434,284.5679,8.5437e-05,1.072e-05,0.0,0 STARLINK-3708,1 52111U 22029Z   23079.80167505  .00001072  00000-0  85437-4 0  9999,2 52111  53.2129 269.3761 0001091  75.5434 284.5679 15.08842348 57003,6917.873,95.437,540.493,538.983,0.0
52111.0,STARLINK-3708,PAYLOAD,2023-03-21 19:05:11,15.08849988,0.0001049,53.2126,264.9142,78.664,281.447,0.00026765,3.976e-05,0.0,0 STARLINK-3708,1 52111U 22029Z   23080.79527031  .00003976  00000-0  26765-3 0  9996,2 52111  53.2126 264.9142 0001049  78.6640 281.4470 15.08849988 57158,6917.85,95.437,540.441,538.989,0.0
52111.0,STARLINK-3708,PAYLOAD,2023-03-22 04:37:30,15.08841732,0.0001059,53.2128,263.1296,72.7527,287.3581,0.00020336,2.95e-05,0.0,0 STARLINK-3708,1 52111U 22029Z   23081.19271355  .00002950  00000-0  20336-3 0  9995,2 52111  53.2128 263.1296 0001059  72.7527 287.3581 15.08841732 57215,6917.875,95.437,540.473,539.007,0.0
52111.0,STARLINK-3708,PAYLOAD,2023-03-22 18:55:58,15.08839156,0.0001092,53.2125,260.4543,85.6674,274.4443,-5.2504e-06,-3.71e-06,0.0,0 STARLINK-3708,1 52111U 22029Z   23081.78887362 -.00000371  00000-0 -52504-5 0  9992,2 52111  53.2125 260.4543 0001092  85.6674 274.4443 15.08839156 57301,6917.883,95.438,540.503,538.993,0.0
52111.0,STARLINK-3708,PAYLOAD,2023-03-23 04:28:17,15.08835536,0.0001179,53.2132,258.6683,84.6777,275.4349,-2.8561e-05,-7.42e-06,0.0,0 STARLINK-3708,1 52111U 22029Z   23082.18631670 -.00000742  00000-0 -28561-4 0  9993,2 52111  53.2132 258.6683 0001179  84.6777 275.4349 15.08835536 57362,6917.894,95.438,540.575,538.943,0.0
52111.0,STARLINK-3708,PAYLOAD,2023-03-23 18:46:45,15.08846343,7.99e-05,53.2132,255.9931,100.0627,260.0455,0.00015624,2.2e-05,0.0,0 STARLINK-3708,1 52111U 22029Z   23082.78247034  .00002200  00000-0  15624-3 0  9990,2 52111  53.2132 255.9931 0000799 100.0627 260.0455 15.08846343 57458,6917.861,95.437,540.279,539.173,0.0
52111.0,STARLINK-3708,PAYLOAD,2023-03-24 12:15:59,15.08848919,0.0001211,53.2132,252.7234,119.0348,241.0765,6.7324e-05,7.84e-06,0.0,0 STARLINK-3708,1 52111U 22029Z   23083.51110848  .00000784  00000-0  67324-4 0  9994,2 52111  53.2132 252.7234 0001211 119.0348 241.0765 15.08848919 57565,6917.853,95.437,540.556,538.88,0.0
52111.0,STARLINK-3708,PAYLOAD,2023-03-24 18:37:31,15.08858028,9.79e-05,53.2129,251.534,129.2484,230.8595,0.00033066,4.981e-05,0.0,0 STARLINK-3708,1 52111U 22029Z   23083.77606390  .00004981  00000-0  33066-3 0  9992,2 52111  53.2129 251.5340 0000979 129.2484 230.8595 15.08858028 57604,6917.825,95.436,540.368,539.013,0.0
52111.0,STARLINK-3708,PAYLOAD,2023-03-25 04:09:51,15.08831593,0.0001047,53.2132,249.7458,99.9171,260.1939,-0.0001119,-2.068e-05,0.0,0 STARLINK-3708,1 52111U 22029Z   23084.17351446 -.00002068  00000-0 -11190-3 0  9996,2 52111  53.2132 249.7458 0001047  99.9171 260.1939 15.08831593 57662,6917.906,95.438,540.495,539.047,0.0
52111.0,STARLINK-3708,PAYLOAD,2023-03-25 18:28:21,15.08806548,0.0001073,53.2128,247.0722,114.9653,245.145,-0.000412,-6.833e-05,0.0,0 STARLINK-3708,1 52111U 22029Z   23084.76969318 -.00006833  00000-0 -41200-3 0  9993,2 52111  53.2128 247.0722 0001073 114.9653 245.1450 15.08806548 57757,6917.983,95.44,540.59,539.105,0.0
52111.0,STARLINK-3708,PAYLOAD,2023-03-26 04:00:40,15.08822586,8.8e-05,53.2134,245.2889,119.4075,240.7005,0.00013933,1.929e-05,0.0,0 STARLINK-3708,1 52111U 22029Z   23085.16713448  .00001929  00000-0  13933-3 0  9990,2 52111  53.2134 245.2889 0000880 119.4075 240.7005 15.08822586 57815,6917.934,95.439,540.407,539.19,0.0
52111.0,STARLINK-3708,PAYLOAD,2023-03-26 16:43:45,15.08845423,6.6e-05,53.2131,242.9109,89.6159,270.4908,0.00072224,0.00011227,0.0,0 STARLINK-3708,1 52111U 22029Z   23085.69705330  .00011227  00000-0  72224-3 0  9999,2 52111  53.2131 242.9109 0000660  89.6159 270.4908 15.08845423 57893,6917.864,95.437,540.185,539.272,0.0
52111.0,STARLINK-3708,PAYLOAD,2023-03-27 03:51:27,15.08858926,8.46e-05,53.2128,240.8278,104.1855,255.9231,0.00084839,0.00013247,0.0,0 STARLINK-3708,1 52111U 22029Z   23086.16073045  .00013247  00000-0  84839-3 0  9992,2 52111  53.2128 240.8278 0000846 104.1855 255.9231 15.08858926 57962,6917.823,95.436,540.273,539.102,0.0
52111.0,STARLINK-3708,PAYLOAD,2023-03-27 16:34:31,15.08864314,0.0001086,53.2131,238.4485,88.8433,271.2684,0.00039056,5.937e-05,0.0,0 STARLINK-3708,1 52111U 22029Z   23086.69064255  .00005937  00000-0  39056-3 0  9991,2 52111  53.2131 238.4485 0001086  88.8433 271.2684 15.08864314 58047,6917.806,95.436,540.422,538.92,0.0
52111.0,STARLINK-3708,PAYLOAD,2023-03-28 13:14:32,15.08848998,9.08e-05,53.2128,234.583,77.7653,282.344,1.7212e-05,-1.4e-07,0.0,0 STARLINK-3708,1 52111U 22029Z   23087.55176082 -.00000014  00000-0  17212-4 0  9992,2 52111  53.2128 234.5830 0000908  77.7653 282.3440 15.08848998 58174,6917.853,95.437,540.346,539.09,0.0
